[{"OBJECT_NAME":"STARLINK-2371","OBJECT_ID":"2021-021BD","EPOCH":"2026-01-27T08:00:01.999872","MEAN_MOTION":15.12482622,"ECCENTRICITY":0.00013711,"INCLINATION":53.0793,"RA_OF_ASC_NODE":112.4461,"ARG_OF_PERICENTER":114.3724,"MEAN_ANOMALY":72.5653,"EPHEMERIS_TYPE":0,"CLASSIFICATION_TYPE":"U","NORAD_CAT_ID":47911,"ELEMENT_SET_NO":999,"REV_AT_EPOCH":579,"BSTAR":0.068849524,"MEAN_MOTION_DOT":0.01315275,"MEAN_MOTION_DDOT":0},{"OBJECT_NAME":"STARLINK-2378","OBJECT_ID":"2021-021BJ","EPOCH":"2026-01-27T08:00:01.999872","MEAN_MOTION":15.17362715,"ECCENTRICITY":0.00015264,"INCLINATION":53.0999,"RA_OF_ASC_NODE":87.0031,"ARG_OF_PERICENTER":77.936,"MEAN_ANOMALY":358.3747,"EPHEMERIS_TYPE":0,"CLASSIFICATION_TYPE":"U","NORAD_CAT_ID":47916,"ELEMENT_SET_NO":999,"REV_AT_EPOCH":564,"BSTAR":0.048910223,"MEAN_MOTION_DOT":0.0106775,"MEAN_MOTION_DDOT":0},{"OBJECT_NAME":"STARLINK-2405","OBJECT_ID":"2021-021BM","EPOCH":"2026-01-26T14:46:33.438720","MEAN_MOTION":15.06412215,"ECCENTRICITY":0.00021,"INCLINATION":53.0538,"RA_OF_ASC_NODE":110.5001,"ARG_OF_PERICENTER":63.9755,"MEAN_ANOMALY":296.145,"EPHEMERIS_TYPE":0,"CLASSIFICATION_TYPE":"U","NORAD_CAT_ID":47919,"ELEMENT_SET_NO":999,"REV_AT_EPOCH":26969,"BSTAR":0.0010253,"MEAN_MOTION_DOT":0.00015029,"MEAN_MOTION_DDOT":0},{"OBJECT_NAME":"STARLINK-1647","OBJECT_ID":"2021-024B","EPOCH":"2026-01-26T17:05:13.085664","MEAN_MOTION":15.06400618,"ECCENTRICITY":9.66e-5,"INCLINATION":53.0543,"RA_OF_ASC_NODE":165.0651,"ARG_OF_PERICENTER":91.4995,"MEAN_ANOMALY":268.6104,"EPHEMERIS_TYPE":0,"CLASSIFICATION_TYPE":"U","NORAD_CAT_ID":47978,"ELEMENT_SET_NO":999,"REV_AT_EPOCH":26823,"BSTAR":0.00029002065,"MEAN_MOTION_DOT":4.041e-5,"MEAN_MOTION_DDOT":0},{"OBJECT_NAME":"STARLINK-2303","OBJECT_ID":"2021-024E","EPOCH":"2026-01-26T18:24:50.462208","MEAN_MOTION":15.06405067,"ECCENTRICITY":0.00017661,"INCLINATION":53.0515,"RA_OF_ASC_NODE":164.8148,"ARG_OF_PERICENTER":95.7398,"MEAN_ANOMALY":264.3792,"EPHEMERIS_TYPE":0,"CLASSIFICATION_TYPE":"U","NORAD_CAT_ID":47981,"ELEMENT_SET_NO":999,"REV_AT_EPOCH":26824,"BSTAR":5.0661246e-5,"MEAN_MOTION_DOT":4.73e-6,"MEAN_MOTION_DDOT":0},{"OBJECT_NAME":"STARLINK-2273","OBJECT_ID":"2021-024S","EPOCH":"2026-01-26T15:56:12.795072","MEAN_MOTION":15.06410585,"ECCENTRICITY":0.00014493,"INCLINATION":53.054,"RA_OF_ASC_NODE":125.2739,"ARG_OF_PERICENTER":98.61,"MEAN_ANOMALY":261.5053,"EPHEMERIS_TYPE":0,"CLASSIFICATION_TYPE":"U","NORAD_CAT_ID":47993,"ELEMENT_SET_NO":999,"REV_AT_EPOCH":26878,"BSTAR":0.00063982112,"MEAN_MOTION_DOT":9.264e-5,"MEAN_MOTION_DDOT":0},{"OBJECT_NAME":"STARLINK-2266","OBJECT_ID":"2021-024W","EPOCH":"2026-01-26T17:11:11.067648","MEAN_MOTION":15.06414693,"ECCENTRICITY":0.00014033,"INCLINATION":53.0538,"RA_OF_ASC_NODE":140.0467,"ARG_OF_PERICENTER":70.8856,"MEAN_ANOMALY":289.2285,"EPHEMERIS_TYPE":0,"CLASSIFICATION_TYPE":"U","NORAD_CAT_ID":47997,"ELEMENT_SET_NO":999,"REV_AT_EPOCH":26858,"BSTAR":0.00087346461,"MEAN_MOTION_DOT":0.00012758,"MEAN_MOTION_DDOT":0},{"OBJECT_NAME":"STARLINK-2270","OBJECT_ID":"2021-024Z","EPOCH":"2026-01-27T06:26:04.226208","MEAN_MOTION":15.06401006,"ECCENTRICITY":0.00012531,"INCLINATION":53.0541,"RA_OF_ASC_NODE":67.7714,"ARG_OF_PERICENTER":92.1999,"MEAN_ANOMALY":267.9134,"EPHEMERIS_TYPE":0,"CLASSIFICATION_TYPE":"U","NORAD_CAT_ID":48000,"ELEMENT_SET_NO":999,"REV_AT_EPOCH":26959,"BSTAR":0.00042769752,"MEAN_MOTION_DOT":6.095e-5,"MEAN_MOTION_DDOT":0},{"OBJECT_NAME":"STARLINK-2153","OBJECT_ID":"2021-024AJ","EPOCH":"2026-01-27T08:00:01.999872","MEAN_MOTION":15.24648778,"ECCENTRICITY":0.00014101,"INCLINATION":53.1361,"RA_OF_ASC_NODE":141.379,"ARG_OF_PERICENTER":102.4818,"MEAN_ANOMALY":354.203,"EPHEMERIS_TYPE":0,"CLASSIFICATION_TYPE":"U","NORAD_CAT_ID":48009,"ELEMENT_SET_NO":999,"REV_AT_EPOCH":579,"BSTAR":0.024326466,"MEAN_MOTION_DOT":0.00648445,"MEAN_MOTION_DDOT":0},{"OBJECT_NAME":"STARLINK-2226","OBJECT_ID":"2021-024AK","EPOCH":"2026-01-26T18:08:54.988800","MEAN_MOTION":15.06404389,"ECCENTRICITY":0.00014509,"INCLINATION":53.0562,"RA_OF_ASC_NODE":164.8669,"ARG_OF_PERICENTER":75.5371,"MEAN_ANOMALY":284.5779,"EPHEMERIS_TYPE":0,"CLASSIFICATION_TYPE":"U","NORAD_CAT_ID":48010,"ELEMENT_SET_NO":999,"REV_AT_EPOCH":26818,"BSTAR":2.3678644e-5,"MEAN_MOTION_DOT":7.1e-7,"MEAN_MOTION_DDOT":0},{"OBJECT_NAME":"STARLINK-2285","OBJECT_ID":"2021-024AU","EPOCH":"2026-01-26T15:40:57.049248","MEAN_MOTION":15.06414176,"ECCENTRICITY":0.00013367,"INCLINATION":53.0547,"RA_OF_ASC_NODE":140.3278,"ARG_OF_PERICENTER":74.5761,"MEAN_ANOMALY":285.5376,"EPHEMERIS_TYPE":0,"CLASSIFICATION_TYPE":"U","NORAD_CAT_ID":48019,"ELEMENT_SET_NO":999,"REV_AT_EPOCH":26851,"BSTAR":0.0004809226,"MEAN_MOTION_DOT":6.892e-5,"MEAN_MOTION_DDOT":0},{"OBJECT_NAME":"STARLINK-2298","OBJECT_ID":"2021-024AX","EPOCH":"2026-01-26T20:51:30.522528","MEAN_MOTION":15.06409003,"ECCENTRICITY":0.00013918,"INCLINATION":53.0535,"RA_OF_ASC_NODE":159.6394,"ARG_OF_PERICENTER":75.9954,"MEAN_ANOMALY":284.1189,"EPHEMERIS_TYPE":0,"CLASSIFICATION_TYPE":"U","NORAD_CAT_ID":48022,"ELEMENT_SET_NO":999,"REV_AT_EPOCH":26832,"BSTAR":0.00034225926,"MEAN_MOTION_DOT":4.821e-5,"MEAN_MOTION_DDOT":0},{"OBJECT_NAME":"STARLINK-2292","OBJECT_ID":"2021-024AY","EPOCH":"2026-01-26T17:24:28.220832","MEAN_MOTION":15.06395523,"ECCENTRICITY":0.00018704,"INCLINATION":53.0583,"RA_OF_ASC_NODE":160.0099,"ARG_OF_PERICENTER":19.4809,"MEAN_ANOMALY":340.6251,"EPHEMERIS_TYPE":0,"CLASSIFICATION_TYPE":"U","NORAD_CAT_ID":48023,"ELEMENT_SET_NO":999,"REV_AT_EPOCH":26830,"BSTAR":-0.00011035353,"MEAN_MOTION_DOT":-1.925e-5,"MEAN_MOTION_DDOT":0},{"OBJECT_NAME":"STARLINK-2299","OBJECT_ID":"2021-024BE","EPOCH":"2026-01-25T15:23:59.298720","MEAN_MOTION":15.06404517,"ECCENTRICITY":0.0001361,"INCLINATION":53.0559,"RA_OF_ASC_NODE":164.8698,"ARG_OF_PERICENTER":76.5181,"MEAN_ANOMALY":283.5959,"EPHEMERIS_TYPE":0,"CLASSIFICATION_TYPE":"U","NORAD_CAT_ID":48029,"ELEMENT_SET_NO":999,"REV_AT_EPOCH":26814,"BSTAR":0.0001399,"MEAN_MOTION_DOT":1.803e-5,"MEAN_MOTION_DDOT":0},{"OBJECT_NAME":"STARLINK-2404","OBJECT_ID":"2021-027B","EPOCH":"2026-01-27T08:00:01.999872","MEAN_MOTION":15.23415081,"ECCENTRICITY":0.00014659,"INCLINATION":53.1292,"RA_OF_ASC_NODE":346.959,"ARG_OF_PERICENTER":82.4974,"MEAN_ANOMALY":117.7423,"EPHEMERIS_TYPE":0,"CLASSIFICATION_TYPE":"U","NORAD_CAT_ID":48093,"ELEMENT_SET_NO":999,"REV_AT_EPOCH":579,"BSTAR":0.039958178,"MEAN_MOTION_DOT":0.01037414,"MEAN_MOTION_DDOT":0},{"OBJECT_NAME":"STARLINK-2412","OBJECT_ID":"2021-027C","EPOCH":"2026-01-27T08:00:01.999872","MEAN_MOTION":15.17658638,"ECCENTRICITY":0.00013117,"INCLINATION":53.1041,"RA_OF_ASC_NODE":357.0189,"ARG_OF_PERICENTER":87.2876,"MEAN_ANOMALY":233.9052,"EPHEMERIS_TYPE":0,"CLASSIFICATION_TYPE":"U","NORAD_CAT_ID":48094,"ELEMENT_SET_NO":999,"REV_AT_EPOCH":564,"BSTAR":0.077568526,"MEAN_MOTION_DOT":0.01731001,"MEAN_MOTION_DDOT":0}]
