STARLINK-2371           
1 47911U 21021BD  26027.33335648  .01315275  00000+0  68850-1 0  9991
2 47911  53.0793 112.4461 0001371 114.3724  72.5653 15.12482622  5796
STARLINK-2378           
1 47916U 21021BJ  26027.33335648  .01067750  00000+0  48910-1 0  9993
2 47916  53.0999  87.0031 0001526  77.9360 358.3747 15.17362715  5649
STARLINK-2405           
1 47919U 21021BM  26026.61566480  .00015029  00000+0  10253-2 0  9997
2 47919  53.0538 110.5001 0002100  63.9755 296.1450 15.06412215269698
STARLINK-1647           
1 47978U 21024B   26026.71195701  .00004041  00000+0  29002-3 0  9995
2 47978  53.0543 165.0651 0000966  91.4995 268.6104 15.06400618268238
STARLINK-2303           
1 47981U 21024E   26026.76725072  .00000473  00000+0  50661-4 0  9995
2 47981  53.0515 164.8148 0001766  95.7398 264.3792 15.06405067268242
STARLINK-2273           
1 47993U 21024S   26026.66403698  .00009264  00000+0  63982-3 0  9990
2 47993  53.0540 125.2739 0001449  98.6100 261.5053 15.06410585268780
STARLINK-2266           
1 47997U 21024W   26026.71610032  .00012758  00000+0  87346-3 0  9994
2 47997  53.0538 140.0467 0001403  70.8856 289.2285 15.06414693268580
STARLINK-2270           
1 48000U 21024Z   26027.26810447  .00006095  00000+0  42770-3 0  9992
2 48000  53.0541  67.7714 0001253  92.1999 267.9134 15.06401006269590
STARLINK-2153           
1 48009U 21024AJ  26027.33335648  .00648445  00000+0  24326-1 0  9990
2 48009  53.1361 141.3790 0001410 102.4818 354.2030 15.24648778  5797
STARLINK-2226           
1 48010U 21024AK  26026.75619200  .00000071  00000+0  23679-4 0  9996
2 48010  53.0562 164.8669 0001450  75.5371 284.5779 15.06404389268181
STARLINK-2285           
1 48019U 21024AU  26026.65343807  .00006892  00000+0  48092-3 0  9993
2 48019  53.0547 140.3278 0001336  74.5761 285.5376 15.06414176268519
STARLINK-2298           
1 48022U 21024AX  26026.86910327  .00004821  00000+0  34226-3 0  9991
2 48022  53.0535 159.6394 0001391  75.9954 284.1189 15.06409003268321
STARLINK-2292           
1 48023U 21024AY  26026.72532663 -.00001925  00000+0 -11035-3 0  9997
2 48023  53.0583 160.0099 0001870  19.4809 340.6251 15.06395523268304
STARLINK-2299           
1 48029U 21024BE  26025.64165855  .00001803  00000+0  13990-3 0  9993
2 48029  53.0559 164.8698 0001361  76.5181 283.5959 15.06404517268148
STARLINK-2404           
1 48093U 21027B   26027.33335648  .01037414  00000+0  39958-1 0  9992
2 48093  53.1292 346.9590 0001465  82.4974 117.7423 15.23415081  5790
STARLINK-2412           
1 48094U 21027C   26027.33335648  .01731001  00000+0  77569-1 0  9996
2 48094  53.1041 357.0189 0001311  87.2876 233.9052 15.17658638  5647
